NORAD_CAT_ID,OBJECT_NAME,OBJECT_TYPE,EPOCH,MEAN_MOTION,ECCENTRICITY,INCLINATION,RA_OF_ASC_NODE,ARG_OF_PERICENTER,MEAN_ANOMALY,BSTAR,MEAN_MOTION_DOT,MEAN_MOTION_DDOT,TLE_LINE0,TLE_LINE1,TLE_LINE2,SEMIMAJOR_AXIS,PERIOD,APOGEE,PERIGEE,DECAYED
52347.0,STARLINK-3826,PAYLOAD,2024-01-21 23:52:20,15.08794134,0.0001778,53.2164,90.3452,91.096,269.0236,0.0013275,0.00020876,0.0,0 STARLINK-3826,1 52347U 22045S   24021.99467628  .00020876  00000-0  13275-2 0  9997,2 52347  53.2164  90.3452 0001778  91.0960 269.0236 15.08794134 98372,6918.021,95.44,541.116,538.656,0.0
52347.0,STARLINK-3826,PAYLOAD,2024-01-22 11:00:00,15.08833129,0.0001618,53.217,88.2624,87.89,272.2278,-4.4283e-06,-3.58e-06,0.0,0 STARLINK-3826,1 52347U 22045S   24022.45833362 -.00000358  00000-0 -44283-5 0  9992,2 52347  53.2170  88.2624 0001618  87.8900 272.2278 15.08833129 98444,6917.901,95.438,540.886,538.647,0.0
52347.0,STARLINK-3826,PAYLOAD,2024-01-23 10:50:45,15.08854361,0.0001484,53.2167,83.8002,88.7776,271.3386,0.00015666,2.207e-05,0.0,0 STARLINK-3826,1 52347U 22045S   24023.45191703  .00002207  00000-0  15666-3 0  9993,2 52347  53.2167  83.8002 0001484  88.7776 271.3386 15.08854361 98590,6917.836,95.437,540.728,538.675,0.0
52347.0,STARLINK-3826,PAYLOAD,2024-01-24 09:06:10,15.08838475,0.0001716,53.2173,79.6391,107.87,252.248,0.00013869,1.92e-05,0.0,0 STARLINK-3826,1 52347U 22045S   24024.37929022  .00001920  00000-0  13869-3 0  9992,2 52347  53.2173  79.6391 0001716 107.8700 252.2480 15.08838475 98736,6917.885,95.438,540.937,538.563,0.0
52347.0,STARLINK-3826,PAYLOAD,2024-01-25 10:32:20,15.08847853,0.0001554,53.2165,74.8773,96.8935,263.2234,2.6893e-05,1.4e-06,0.0,0 STARLINK-3826,1 52347U 22045S   24025.43912535  .00000140  00000-0  26893-4 0  9996,2 52347  53.2165  74.8773 0001554  96.8935 263.2234 15.08847853 98891,6917.856,95.437,540.796,538.646,0.0
52347.0,STARLINK-3826,PAYLOAD,2024-01-26 10:23:09,15.08820818,0.0001902,53.2171,70.4177,68.0917,292.0277,0.00073275,0.00011387,0.0,0 STARLINK-3826,1 52347U 22045S   24026.43274389  .00011387  00000-0  73275-3 0  9995,2 52347  53.2171  70.4177 0001902  68.0917 292.0277 15.08820818 99043,6917.939,95.439,541.12,538.488,0.0
52347.0,STARLINK-3826,PAYLOAD,2024-01-27 10:13:55,15.08842783,0.000214,53.2185,65.9542,58.6925,301.4276,0.00010998,1.463e-05,0.0,0 STARLINK-3826,1 52347U 22045S   24027.42633593  .00001463  00000-0  10998-3 0  9998,2 52347  53.2185  65.9542 0002140  58.6925 301.4276 15.08842783 99197,6917.872,95.437,541.217,538.256,0.0
52347.0,STARLINK-3826,PAYLOAD,2024-01-28 08:29:19,15.0884288,0.0001961,53.2181,61.795,64.5111,295.6084,0.00011189,1.493e-05,0.0,0 STARLINK-3826,1 52347U 22045S   24028.35369500  .00001493  00000-0  11189-3 0  9991,2 52347  53.2181  61.7950 0001961  64.5111 295.6084 15.08842880 99338,6917.872,95.437,541.093,538.38,0.0
52347.0,STARLINK-3826,PAYLOAD,2024-01-29 01:58:33,15.08846063,0.0001809,53.2175,58.524,68.872,291.2466,0.00010474,1.379e-05,0.0,0 STARLINK-3826,1 52347U 22045S   24029.08233203  .00001379  00000-0  10474-3 0  9991,2 52347  53.2175  58.5240 0001809  68.8720 291.2466 15.08846063 99446,6917.862,95.437,540.978,538.475,0.0
52347.0,STARLINK-3826,PAYLOAD,2024-01-29 08:20:05,15.08846928,0.0001513,53.2172,57.3333,85.4482,274.6683,0.0001004,1.311e-05,0.0,0 STARLINK-3826,1 52347U 22045S   24029.34728924  .00001311  00000-0  10040-3 0  9994,2 52347  53.2172  57.3333 0001513  85.4482 274.6683 15.08846928 99485,6917.859,95.437,540.771,538.678,0.0
52347.0,STARLINK-3826,PAYLOAD,2024-01-30 11:21:39,15.0883957,0.000159,53.2176,52.2767,97.2805,262.8368,1.7228e-05,-1.4e-07,0.0,0 STARLINK-3826,1 52347U 22045S   24030.47337479 -.00000014  00000-0  17228-4 0  9997,2 52347  53.2176  52.2767 0001590  97.2805 262.8368 15.08839570 99652,6917.882,95.438,540.847,538.647,0.0
52347.0,STARLINK-3826,PAYLOAD,2024-01-31 08:01:41,15.08758466,0.0002073,53.2181,48.4095,93.9181,266.2048,0.0012721,0.0001997,0.0,0 STARLINK-3826,1 52347U 22045S   24031.33451285  .00019970  00000-0  12721-2 0  9996,2 52347  53.2181  48.4095 0002073  93.9181 266.2048 15.08758466 99787,6918.13,95.443,541.429,538.56,0.0
52347.0,STARLINK-3826,PAYLOAD,2024-02-01 01:30:55,15.0883426,0.0001898,53.2188,45.1415,110.0755,250.0442,3.9175e-05,3.35e-06,0.0,0 STARLINK-3826,1 52347U 22045S   24032.06313844  .00000335  00000-0  39175-4 0  9994,2 52347  53.2188  45.1415 0001898 110.0755 250.0442 15.08834260 99894,6917.898,95.438,541.076,538.45,0.0
52347.0,STARLINK-3826,PAYLOAD,2024-02-01 09:27:50,15.08834955,0.0001604,53.2179,43.6513,102.1281,257.989,3.8321e-05,3.22e-06,0.0,0 STARLINK-3826,1 52347U 22045S   24032.39433905  .00000322  00000-0  38321-4 0  9999,2 52347  53.2179  43.6513 0001604 102.1281 257.9890 15.08834955 99947,6917.896,95.438,540.87,538.651,0.0
52347.0,STARLINK-3826,PAYLOAD,2024-02-02 04:32:28,15.08827021,0.0001853,53.2179,40.0819,113.7542,246.3645,0.00015856,2.235e-05,0.0,0 STARLINK-3826,1 52347U 22045S   24033.18922086  .00002235  00000-0  15856-3 0  9992,2 52347  53.2179  40.0819 0001853 113.7542 246.3645 15.08827021100063,6917.92,95.438,541.067,538.503,0.0
52347.0,STARLINK-3826,PAYLOAD,2024-02-02 07:43:14,15.0884477,0.0001476,53.2182,39.4902,98.5005,261.6155,4.1921e-06,-2.21e-06,0.0,0 STARLINK-3826,1 52347U 22045S   24033.32169697 -.00000221  00000-0  41921-5 0  9997,2 52347  53.2182  39.4902 0001476  98.5005 261.6155 15.08844770100085,6917.866,95.437,540.752,538.71,0.0
52347.0,STARLINK-3826,PAYLOAD,2024-02-03 04:23:15,15.088365,0.0001457,53.2184,35.6244,94.6333,265.4825,6.2175e-05,7.02e-06,0.0,0 STARLINK-3826,1 52347U 22045S   24034.18282176  .00000702  00000-0  62175-4 0  9996,2 52347  53.2184  35.6244 0001457  94.6333 265.4825 15.08836500100217,6917.891,95.438,540.764,538.748,0.0
52347.0,STARLINK-3826,PAYLOAD,2024-02-03 09:09:24,15.08843208,0.0001517,53.2184,34.7301,94.209,265.9075,0.00011961,1.616e-05,0.0,0 STARLINK-3826,1 52347U 22045S   24034.38153664  .00001616  00000-0  11961-3 0  9998,2 52347  53.2184  34.7301 0001517  94.2090 265.9075 15.08843208100242,6917.871,95.437,540.785,538.686,0.0
52347.0,STARLINK-3826,PAYLOAD,2024-02-04 04:14:03,15.08836369,0.0001746,53.2198,31.1556,77.7819,282.3369,4.5843e-05,4.42e-06,0.0,0 STARLINK-3826,1 52347U 22045S   24035.17642458  .00000442  00000-0  45843-4 0  9993,2 52347  53.2198  31.1556 0001746  77.7819 282.3369 15.08836369100361,6917.891,95.438,540.964,538.549,0.0
52347.0,STARLINK-3826,PAYLOAD,2024-02-04 05:49:26,15.08839027,0.0001741,53.2196,30.858,74.4117,285.7067,5.7649e-05,6.3e-06,0.0,0 STARLINK-3826,1 52347U 22045S   24035.24266341  .00000630  00000-0  57649-4 0  9990,2 52347  53.2196  30.8580 0001741  74.4117 285.7067 15.08839027100379,6917.883,95.438,540.953,538.544,0.0
52347.0,STARLINK-3826,PAYLOAD,2024-02-05 04:04:49,15.0884843,0.000168,53.2184,26.7034,94.0544,266.0641,7.2239e-05,8.62e-06,0.0,0 STARLINK-3826,1 52347U 22045S   24036.17001527  .00000862  00000-0  72239-4 0  9995,2 52347  53.2184  26.7034 0001680  94.0544 266.0641 15.08848430100512,6917.855,95.437,540.882,538.557,0.0
52347.0,STARLINK-3826,PAYLOAD,2024-02-05 05:40:12,15.08850067,0.0001611,53.2178,26.4054,103.5401,256.5771,8.7241e-05,1.101e-05,0.0,0 STARLINK-3826,1 52347U 22045S   24036.23625310  .00001101  00000-0  87241-4 0  9990,2 52347  53.2178  26.4054 0001611 103.5401 256.5771 15.08850067100524,6917.85,95.437,540.829,538.6,0.0
52347.0,STARLINK-3826,PAYLOAD,2024-02-06 03:55:36,15.08840164,0.0001707,53.2182,22.244,105.0641,255.054,1.5766e-05,-3.7e-07,0.0,0 STARLINK-3826,1 52347U 22045S   24037.16362103 -.00000037  00000-0  15766-4 0  9992,2 52347  53.2182  22.2440 0001707 105.0641 255.0540 15.08840164100661,6917.88,95.438,540.926,538.564,0.0
52347.0,STARLINK-3826,PAYLOAD,2024-02-06 08:41:45,15.08843472,0.0001622,53.2171,21.3498,113.3446,246.7717,5.2618e-05,5.5e-06,0.0,0 STARLINK-3826,1 52347U 22045S   24037.36233681  .00000550  00000-0  52618-4 0  9998,2 52347  53.2171  21.3498 0001622 113.3446 246.7717 15.08843472100694,6917.87,95.437,540.857,538.613,0.0
52347.0,STARLINK-3826,PAYLOAD,2024-02-07 05:21:46,15.08849118,0.0001726,53.2185,17.4815,107.623,252.4951,3.2251e-06,-2.37e-06,0.0,0 STARLINK-3826,1 52347U 22045S   24038.22345448 -.00000237  00000-0  32251-5 0  9994,2 52347  53.2185  17.4815 0001726 107.6230 252.4951 15.08849118100822,6917.853,95.437,540.912,538.523,0.0
52347.0,STARLINK-3826,PAYLOAD,2024-02-08 03:37:12,15.08827635,0.0001558,53.2183,13.3175,100.6774,259.4394,-3.6571e-05,-8.7e-06,0.0,0 STARLINK-3826,1 52347U 22045S   24039.15083388 -.00000870  00000-0 -36571-4 0  9991,2 52347  53.2183  13.3175 0001558 100.6774 259.4394 15.08827635100966,6917.918,95.438,540.861,538.705,0.0
52347.0,STARLINK-3826,PAYLOAD,2024-02-08 05:12:35,15.08831137,0.0001351,53.2179,13.0241,91.126,268.9887,-6.4828e-05,-1.319e-05,0.0,0 STARLINK-3826,1 52347U 22045S   24039.21707361 -.00001319  00000-0 -64828-4 0  9997,2 52347  53.2179  13.0241 0001351  91.1260 268.9887 15.08831137100972,6917.907,95.438,540.707,538.838,0.0
52347.0,STARLINK-3826,PAYLOAD,2024-02-08 22:41:49,15.08843698,0.0001303,53.2175,9.752,83.0763,277.0377,3.5528e-06,-2.31e-06,0.0,0 STARLINK-3826,1 52347U 22045S   24039.94570826 -.00000231  00000-0  35528-5 0  9998,2 52347  53.2175   9.7520 0001303  83.0763 277.0377 15.08843698101088,6917.869,95.437,540.635,538.833,0.0
52347.0,STARLINK-3826,PAYLOAD,2024-02-09 03:27:57,15.08849567,0.0001468,53.2181,8.8643,96.1071,264.0088,7.7962e-05,9.53e-06,0.0,0 STARLINK-3826,1 52347U 22045S   24040.14442113  .00000953  00000-0  77962-4 0  9996,2 52347  53.2181   8.8643 0001468  96.1071 264.0088 15.08849567101110,6917.851,95.437,540.732,538.701,0.0
52347.0,STARLINK-3826,PAYLOAD,2024-02-09 06:38:43,15.08858965,0.0001408,53.2188,8.269,90.6486,269.4667,0.00017234,2.457e-05,0.0,0 STARLINK-3826,1 52347U 22045S   24040.27689342  .00002457  00000-0  17234-3 0  9993,2 52347  53.2188   8.2690 0001408  90.6486 269.4667 15.08858965101132,6917.822,95.436,540.661,538.713,0.0
